{
  "links" : {
    "next" : "https://api.nasa.gov/neo/rest/v1/neo/browse?page=36&size=20&api_key=jqAGvNAwUIBu4fl9FSOjdm3V4F7hIglRzI6pdX9d",
    "prev" : "https://api.nasa.gov/neo/rest/v1/neo/browse?page=34&size=20&api_key=jqAGvNAwUIBu4fl9FSOjdm3V4F7hIglRzI6pdX9d",
    "self" : "https://api.nasa.gov/neo/rest/v1/neo/browse?page=35&size=20&api_key=jqAGvNAwUIBu4fl9FSOjdm3V4F7hIglRzI6pdX9d"
  },
  "page" : {
    "size" : 20,
    "total_elements" : 20750,
    "total_pages" : 1038,
    "number" : 35
  },
  "near_earth_objects" : [ {
    "links" : {
      "self" : "https://api.nasa.gov/neo/rest/v1/neo/3392369?api_key=jqAGvNAwUIBu4fl9FSOjdm3V4F7hIglRzI6pdX9d"
    },
    "neo_reference_id" : "3392369",
    "name" : "(2007 VX6)",
    "designation" : "2007 VX6",
    "nasa_jpl_url" : "http://ssd.jpl.nasa.gov/sbdb.cgi?sstr=3392369",
    "absolute_magnitude_h" : 20.9,
    "estimated_diameter" : {
      "kilometers" : {
        "estimated_diameter_min" : 0.1756123185,
        "estimated_diameter_max" : 0.3926810818
      },
      "meters" : {
        "estimated_diameter_min" : 175.6123184804,
        "estimated_diameter_max" : 392.6810818086
      },
      "miles" : {
        "estimated_diameter_min" : 0.1091204019,
        "estimated_diameter_max" : 0.2440006365
      },
      "feet" : {
        "estimated_diameter_min" : 576.1559189633,
        "estimated_diameter_max" : 1288.3238004408
      }
    },
    "is_potentially_hazardous_asteroid" : false,
    "close_approach_data" : [ {
      "close_approach_date" : "2007-11-05",
      "epoch_date_close_approach" : 1194249600000,
      "relative_velocity" : {
        "kilometers_per_second" : "23.2835887042",
        "kilometers_per_hour" : "83820.9193350725",
        "miles_per_hour" : "52083.0595723955"
      },
      "miss_distance" : {
        "astronomical" : "0.2362559122",
        "lunar" : "91.9035491943",
        "kilometers" : "35343380",
        "miles" : "21961360"
      },
      "orbiting_body" : "Earth"
    } ],
    "orbital_data" : {
      "orbit_id" : "8",
      "orbit_determination_date" : "2017-04-06 09:05:23",
      "first_observation_date" : "2007-11-03",
      "last_observation_date" : "2007-11-19",
      "data_arc_in_days" : 16,
      "observations_used" : 30,
      "orbit_uncertainty" : "8",
      "minimum_orbit_intersection" : ".0781519",
      "jupiter_tisserand_invariant" : "3.085",
      "epoch_osculation" : "2454410.5",
      "eccentricity" : ".6133442199072181",
      "semi_major_axis" : "2.262852464808209",
      "inclination" : "41.09103345215321",
      "ascending_node_longitude" : "233.8318405569804",
      "orbital_period" : "1243.319617060985",
      "perihelion_distance" : ".8749449850152923",
      "perihelion_argument" : "119.7911868164567",
      "aphelion_distance" : "3.650759944601126",
      "perihelion_time" : "2454363.456505606277",
      "mean_anomaly" : "13.62132290792094",
      "mean_motion" : ".2895474301700349",
      "equinox" : "J2000",
      "orbit_class" : {
        "orbit_class_type" : "APO",
        "orbit_class_range" : "a (semi-major axis) > 1.0 AU; q (perihelion) < 1.017 AU",
        "orbit_class_description" : "Near-Earth asteroid orbits which cross the Earth’s orbit similar to that of 1862 Apollo"
      }
    },
    "is_sentry_object" : false
  }, {
    "links" : {
      "self" : "https://api.nasa.gov/neo/rest/v1/neo/3392374?api_key=jqAGvNAwUIBu4fl9FSOjdm3V4F7hIglRzI6pdX9d"
    },
    "neo_reference_id" : "3392374",
    "name" : "(2007 VD8)",
    "designation" : "2007 VD8",
    "nasa_jpl_url" : "http://ssd.jpl.nasa.gov/sbdb.cgi?sstr=3392374",
    "absolute_magnitude_h" : 27.9,
    "estimated_diameter" : {
      "kilometers" : {
        "estimated_diameter_min" : 0.0069912523,
        "estimated_diameter_max" : 0.0156329154
      },
      "meters" : {
        "estimated_diameter_min" : 6.9912523225,
        "estimated_diameter_max" : 15.6329154409
      },
      "miles" : {
        "estimated_diameter_min" : 0.0043441614,
        "estimated_diameter_max" : 0.0097138403
      },
      "feet" : {
        "estimated_diameter_min" : 22.9371802696,
        "estimated_diameter_max" : 51.289094295
      }
    },
    "is_potentially_hazardous_asteroid" : false,
    "close_approach_data" : [ {
      "close_approach_date" : "2007-10-31",
      "epoch_date_close_approach" : 1193814000000,
      "relative_velocity" : {
        "kilometers_per_second" : "11.2083896754",
        "kilometers_per_hour" : "40350.2028315347",
        "miles_per_hour" : "25072.0468649611"
      },
      "miss_distance" : {
        "astronomical" : "0.0139014643",
        "lunar" : "5.4076695442",
        "kilometers" : "2079629.5",
        "miles" : "1292221.875"
      },
      "orbiting_body" : "Earth"
    } ],
    "orbital_data" : {
      "orbit_id" : "6",
      "orbit_determination_date" : "2017-04-06 09:05:22",
      "first_observation_date" : "2007-11-05",
      "last_observation_date" : "2007-11-05",
      "data_arc_in_days" : null,
      "observations_used" : 11,
      "orbit_uncertainty" : "9",
      "minimum_orbit_intersection" : ".00754573",
      "jupiter_tisserand_invariant" : "3.336",
      "epoch_osculation" : "2454409.5",
      "eccentricity" : ".5934035232332315",
      "semi_major_axis" : "2.29380804860166",
      "inclination" : "3.148611161209156",
      "ascending_node_longitude" : "43.59920846865141",
      "orbital_period" : "1268.919394430685",
      "perihelion_distance" : ".9326542709406914",
      "perihelion_argument" : "318.5387859649837",
      "aphelion_distance" : "3.654961826262629",
      "perihelion_time" : "2454378.596447708875",
      "mean_anomaly" : "8.767522092919451",
      "mean_motion" : ".2837059639722176",
      "equinox" : "J2000",
      "orbit_class" : {
        "orbit_class_type" : "APO",
        "orbit_class_range" : "a (semi-major axis) > 1.0 AU; q (perihelion) < 1.017 AU",
        "orbit_class_description" : "Near-Earth asteroid orbits which cross the Earth’s orbit similar to that of 1862 Apollo"
      }
    },
    "is_sentry_object" : true,
    "sentry_data" : "https://api.nasa.gov/neo/rest/v1/neo/sentry/3392374?api_key=jqAGvNAwUIBu4fl9FSOjdm3V4F7hIglRzI6pdX9d"
  }, {
    "links" : {
      "self" : "https://api.nasa.gov/neo/rest/v1/neo/3392375?api_key=jqAGvNAwUIBu4fl9FSOjdm3V4F7hIglRzI6pdX9d"
    },
    "neo_reference_id" : "3392375",
    "name" : "(2007 VE8)",
    "designation" : "2007 VE8",
    "nasa_jpl_url" : "http://ssd.jpl.nasa.gov/sbdb.cgi?sstr=3392375",
    "absolute_magnitude_h" : 25.4,
    "estimated_diameter" : {
      "kilometers" : {
        "estimated_diameter_min" : 0.022108281,
        "estimated_diameter_max" : 0.0494356193
      },
      "meters" : {
        "estimated_diameter_min" : 22.1082810359,
        "estimated_diameter_max" : 49.435619262
      },
      "miles" : {
        "estimated_diameter_min" : 0.0137374447,
        "estimated_diameter_max" : 0.0307178602
      },
      "feet" : {
        "estimated_diameter_min" : 72.5337327539,
        "estimated_diameter_max" : 162.1903570994
      }
    },
    "is_potentially_hazardous_asteroid" : false,
    "close_approach_data" : [ {
      "close_approach_date" : "2007-11-01",
      "epoch_date_close_approach" : 1193900400000,
      "relative_velocity" : {
        "kilometers_per_second" : "8.0470678841",
        "kilometers_per_hour" : "28969.4443826009",
        "miles_per_hour" : "18000.4861498444"
      },
      "miss_distance" : {
        "astronomical" : "0.0477257672",
        "lunar" : "18.565322876",
        "kilometers" : "7139673",
        "miles" : "4436387"
      },
      "orbiting_body" : "Earth"
    } ],
    "orbital_data" : {
      "orbit_id" : "12",
      "orbit_determination_date" : "2017-04-06 09:05:21",
      "first_observation_date" : "2007-11-05",
      "last_observation_date" : "2007-11-16",
      "data_arc_in_days" : 11,
      "observations_used" : 29,
      "orbit_uncertainty" : "8",
      "minimum_orbit_intersection" : ".0477073",
      "jupiter_tisserand_invariant" : "3.192",
      "epoch_osculation" : "2454412.5",
      "eccentricity" : ".5858619227267499",
      "semi_major_axis" : "2.506969819090424",
      "inclination" : "7.215378573789381",
      "ascending_node_longitude" : "44.02012345397876",
      "orbital_period" : "1449.846702936335",
      "perihelion_distance" : "1.038231660660176",
      "perihelion_argument" : "351.7061974869808",
      "aphelion_distance" : "3.975707977520672",
      "perihelion_time" : "2454403.614848773960",
      "mean_anomaly" : "2.206201824576524",
      "mean_motion" : ".2483021130929923",
      "equinox" : "J2000",
      "orbit_class" : {
        "orbit_class_type" : "AMO",
        "orbit_class_range" : "1.017 AU < q (perihelion) < 1.3 AU",
        "orbit_class_description" : "Near-Earth asteroid orbits similar to that of 1221 Amor"
      }
    },
    "is_sentry_object" : true,
    "sentry_data" : "https://api.nasa.gov/neo/rest/v1/neo/sentry/3392375?api_key=jqAGvNAwUIBu4fl9FSOjdm3V4F7hIglRzI6pdX9d"
  } ]
}